[{"OBJECT_NAME":"RTU MIREA 1 (RS51S)","OBJECT_ID":"2024-199BC","EPOCH":"2026-03-09T22:14:17.596320","MEAN_MOTION":15.51490402,"ECCENTRICITY":0.00083773,"INCLINATION":97.3113,"RA_OF_ASC_NODE":303.4357,"ARG_OF_PERICENTER":287.8699,"MEAN_ANOMALY":72.1639,"EPHEMERIS_TYPE":0,"CLASSIFICATION_TYPE":"U","NORAD_CAT_ID":61785,"ELEMENT_SET_NO":999,"REV_AT_EPOCH":11903,"BSTAR":0.00088358128,"MEAN_MOTION_DOT":0.00052439,"MEAN_MOTION_DDOT":0},{"OBJECT_NAME":"STARLINK-36636","OBJECT_ID":"2026-018Y","EPOCH":"2026-03-09T22:00:01.999584","MEAN_MOTION":15.64464953,"ECCENTRICITY":0.00019144,"INCLINATION":97.2844,"RA_OF_ASC_NODE":134.7932,"ARG_OF_PERICENTER":72.5464,"MEAN_ANOMALY":54.5572,"EPHEMERIS_TYPE":0,"CLASSIFICATION_TYPE":"U","NORAD_CAT_ID":67611,"ELEMENT_SET_NO":999,"REV_AT_EPOCH":604,"BSTAR":-0.023080936,"MEAN_MOTION_DOT":-0.01954126,"MEAN_MOTION_DDOT":0}]
